[{"OBJECT_NAME":"BNU-1 (JINGSHI 1)","OBJECT_ID":"2019-059B","EPOCH":"2026-03-09T22:44:13.004736","MEAN_MOTION":14.48293204,"ECCENTRICITY":0.00122993,"INCLINATION":98.5897,"RA_OF_ASC_NODE":196.2785,"ARG_OF_PERICENTER":317.1468,"MEAN_ANOMALY":42.8765,"EPHEMERIS_TYPE":0,"CLASSIFICATION_TYPE":"U","NORAD_CAT_ID":44529,"ELEMENT_SET_NO":999,"REV_AT_EPOCH":34262,"BSTAR":0.00022298879,"MEAN_MOTION_DOT":7.88e-6,"MEAN_MOTION_DDOT":0},{"OBJECT_NAME":"DMSP 5D-2 F13 DEB","OBJECT_ID":"1995-015CC","EPOCH":"2026-03-08T20:46:20.103744","MEAN_MOTION":14.52009812,"ECCENTRICITY":0.00291443,"INCLINATION":98.7319,"RA_OF_ASC_NODE":45.9276,"ARG_OF_PERICENTER":258.7129,"MEAN_ANOMALY":101.0789,"EPHEMERIS_TYPE":0,"CLASSIFICATION_TYPE":"U","NORAD_CAT_ID":40489,"ELEMENT_SET_NO":999,"REV_AT_EPOCH":56673,"BSTAR":0.0057515796,"MEAN_MOTION_DOT":0.00023397,"MEAN_MOTION_DDOT":0}]
